[{"OBJECT_NAME":"STARLINK-34804","OBJECT_ID":"2025-161M","EPOCH":"2026-03-09T21:59:26.614464","MEAN_MOTION":15.30210069,"ECCENTRICITY":8.97e-5,"INCLINATION":53.1582,"RA_OF_ASC_NODE":293.2135,"ARG_OF_PERICENTER":100.5904,"MEAN_ANOMALY":259.5198,"EPHEMERIS_TYPE":0,"CLASSIFICATION_TYPE":"U","NORAD_CAT_ID":65026,"ELEMENT_SET_NO":999,"REV_AT_EPOCH":3537,"BSTAR":0.00099405423,"MEAN_MOTION_DOT":0.00029207,"MEAN_MOTION_DDOT":0},{"OBJECT_NAME":"TRANSPORTER-1 OBJECT AA","OBJECT_ID":"2021-006AA","EPOCH":"2026-03-09T22:58:14.761920","MEAN_MOTION":15.29982294,"ECCENTRICITY":0.00086604,"INCLINATION":97.2381,"RA_OF_ASC_NODE":112.457,"ARG_OF_PERICENTER":185.709,"MEAN_ANOMALY":174.4054,"EPHEMERIS_TYPE":0,"CLASSIFICATION_TYPE":"U","NORAD_CAT_ID":47437,"ELEMENT_SET_NO":999,"REV_AT_EPOCH":28414,"BSTAR":0.0002197941,"MEAN_MOTION_DOT":6.312e-5,"MEAN_MOTION_DDOT":0}]
